ONEWEB-0235             
1 48771U 21045E   25196.34646201  .00000219  00000+0  54833-3 0  9995
2 48771  87.9074 326.3485 0002521  98.0686 262.0730 13.15548396200098
ONEWEB-0242             
1 48772U 21045F   25196.79646353  .00000081  00000+0  18239-3 0  9990
2 48772  87.9071 326.2440 0002119 101.8715 258.2653 13.15548777201326
ONEWEB-0241             
1 48773U 21045G   25196.63166960  .00000035  00000+0  58248-4 0  9999
2 48773  87.9057 326.3330 0002215  88.6918 271.4466 13.15548829200083
ONEWEB-0243             
1 48774U 21045H   25196.81546110  .00000144  00000+0  34887-3 0  9992
2 48774  87.9084 326.2869 0002389  99.3564 260.7836 13.15549759201264
ONEWEB-0222             
1 48775U 21045J   25196.79884145  .00000059  00000+0  12381-3 0  9993
2 48775  87.9069 326.2479 0002049  94.7812 265.3552 13.15547747201297
ONEWEB-0244             
1 48776U 21045K   25196.82496884  .00000046  00000+0  88589-4 0  9997
2 48776  87.9072 326.2228 0002079 102.2832 257.8531 13.15549443201865
ONEWEB-0247             
1 48777U 21045L   25196.82180181  .00000345  00000+0  88335-3 0  9998
2 48777  87.9079 326.2952 0002959  98.6357 261.5108 13.15548708201319
ONEWEB-0245             
1 48778U 21045M   25196.81704464  .00000116  00000+0  27443-3 0  9993
2 48778  87.9073 326.2605 0002001  92.3812 267.7547 13.15549453201283
